{
  "type": "FeatureCollection",
  "features": [
    {
      "type": "Feature",
      "properties": {
        "norad_id": 39541,
        "name": "FENGYUN 1C DEB",
        "group": "fengyun-1c-debris",
        "lat": 29.531161266997675,
        "lon": 22.543168656712844,
        "alt_km": 786.657406447167,
        "timestamp": "2025-12-11T08:58:27.414281+00:00",
        "meta_object_name": "FENGYUN 1C DEB",
        "meta_object_id": "1999-025EWJ",
        "meta_epoch": "2025-11-26T08:43:14.269440",
        "meta_mean_motion": 14.20329557,
        "meta_eccentricity": 0.00721468,
        "meta_inclination": 98.6819,
        "meta_ra_of_asc_node": 12.7746,
        "meta_arg_of_pericenter": 119.8468,
        "meta_mean_anomaly": 240.9905,
        "meta_ephemeris_type": 0,
        "meta_classification_type": "U",
        "meta_norad_cat_id": 39541,
        "meta_element_set_no": 999,
        "meta_rev_at_epoch": 58770,
        "meta_bstar": 0.00069059031,
        "meta_mean_motion_dot": 1.475e-05,
        "meta_mean_motion_ddot": 0,
        "tle_line1": "1 39541U 99025EWJ 25330.36335960  .00001475  00000+0  69059-3 0  9993",
        "tle_line2": "2 39541  98.6819  12.7746 0072146 119.8468 240.9905 14.20329557587703"
      },
      "geometry": {
        "type": "Point",
        "coordinates": [
          22.543168656712844,
          29.531161266997675
        ]
      }
    },
    {
      "type": "Feature",
      "properties": {
        "norad_id": 39543,
        "name": "FENGYUN 1C DEB",
        "group": "fengyun-1c-debris",
        "lat": 79.95538606937006,
        "lon": -48.72536415141628,
        "alt_km": 860.5352287097539,
        "timestamp": "2025-12-11T08:58:27.414291+00:00",
        "meta_object_name": "FENGYUN 1C DEB",
        "meta_object_id": "1999-025EWL",
        "meta_epoch": "2025-12-10T20:17:04.699392",
        "meta_mean_motion": 13.70182991,
        "meta_eccentricity": 0.0339254,
        "meta_inclination": 99.0425,
        "meta_ra_of_asc_node": 14.805,
        "meta_arg_of_pericenter": 147.1454,
        "meta_mean_anomaly": 215.129,
        "meta_ephemeris_type": 0,
        "meta_classification_type": "U",
        "meta_norad_cat_id": 39543,
        "meta_element_set_no": 999,
        "meta_rev_at_epoch": 49159,
        "meta_bstar": 0.0012017,
        "meta_mean_motion_dot": 1.551e-05,
        "meta_mean_motion_ddot": 0,
        "tle_line1": "1 39543U 99025EWL 25344.84519328  .00001551  00000+0  12017-2 0  9991",
        "tle_line2": "2 39543  99.0425  14.8050 0339254 147.1454 215.1290 13.70182991491594"
      },
      "geometry": {
        "type": "Point",
        "coordinates": [
          -48.72536415141628,
          79.95538606937006
        ]
      }
    },
    {
      "type": "Feature",
      "properties": {
        "norad_id": 39544,
        "name": "FENGYUN 1C DEB",
        "group": "fengyun-1c-debris",
        "lat": -33.27318821307448,
        "lon": -129.6432754898935,
        "alt_km": 853.3987260832055,
        "timestamp": "2025-12-11T08:58:27.414302+00:00",
        "meta_object_name": "FENGYUN 1C DEB",
        "meta_object_id": "1999-025EWM",
        "meta_epoch": "2025-12-08T09:22:33.750624",
        "meta_mean_motion": 14.05512501,
        "meta_eccentricity": 0.00547745,
        "meta_inclination": 98.7418,
        "meta_ra_of_asc_node": 221.6849,
        "meta_arg_of_pericenter": 21.3384,
        "meta_mean_anomaly": 339.0051,
        "meta_ephemeris_type": 0,
        "meta_classification_type": "U",
        "meta_norad_cat_id": 39544,
        "meta_element_set_no": 999,
        "meta_rev_at_epoch": 56794,
        "meta_bstar": 0.00088149338,
        "meta_mean_motion_dot": 1.41e-05,
        "meta_mean_motion_ddot": 0,
        "tle_line1": "1 39544U 99025EWM 25342.39066841  .00001410  00000+0  88149-3 0  9991",
        "tle_line2": "2 39544  98.7418 221.6849 0054774  21.3384 339.0051 14.05512501567940"
      },
      "geometry": {
        "type": "Point",
        "coordinates": [
          -129.6432754898935,
          -33.27318821307448
        ]
      }
    },
    {
      "type": "Feature",
      "properties": {
        "norad_id": 40688,
        "name": "FENGYUN 1C DEB",
        "group": "fengyun-1c-debris",
        "lat": 27.705012881071582,
        "lon": 130.23596060178713,
        "alt_km": 845.5321529763223,
        "timestamp": "2025-12-11T08:58:27.414312+00:00",
        "meta_object_name": "FENGYUN 1C DEB",
        "meta_object_id": "1999-025EWU",
        "meta_epoch": "2025-12-10T15:29:24.650016",
        "meta_mean_motion": 13.83826227,
        "meta_eccentricity": 0.01423,
        "meta_inclination": 98.9688,
        "meta_ra_of_asc_node": 134.2977,
        "meta_arg_of_pericenter": 37.1655,
        "meta_mean_anomaly": 323.925,
        "meta_ephemeris_type": 0,
        "meta_classification_type": "U",
        "meta_norad_cat_id": 40688,
        "meta_element_set_no": 999,
        "meta_rev_at_epoch": 29888,
        "meta_bstar": 0.00050433,
        "meta_mean_motion_dot": 5.63e-06,
        "meta_mean_motion_ddot": 0,
        "tle_line1": "1 40688U 99025EWU 25344.64542419  .00000563  00000+0  50433-3 0  9995",
        "tle_line2": "2 40688  98.9688 134.2977 0142300  37.1655 323.9250 13.83826227298887"
      },
      "geometry": {
        "type": "Point",
        "coordinates": [
          130.23596060178713,
          27.705012881071582
        ]
      }
    },
    {
      "type": "Feature",
      "properties": {
        "norad_id": 40689,
        "name": "FENGYUN 1C DEB",
        "group": "fengyun-1c-debris",
        "lat": -35.92969115680148,
        "lon": 76.72907547104803,
        "alt_km": 1102.6340984234503,
        "timestamp": "2025-12-11T08:58:27.414322+00:00",
        "meta_object_name": "FENGYUN 1C DEB",
        "meta_object_id": "1999-025EWV",
        "meta_epoch": "2025-12-08T00:46:07.511232",
        "meta_mean_motion": 13.64679395,
        "meta_eccentricity": 0.03101306,
        "meta_inclination": 99.1251,
        "meta_ra_of_asc_node": 260.272,
        "meta_arg_of_pericenter": 113.5696,
        "meta_mean_anomaly": 249.8343,
        "meta_ephemeris_type": 0,
        "meta_classification_type": "U",
        "meta_norad_cat_id": 40689,
        "meta_element_set_no": 999,
        "meta_rev_at_epoch": 54819,
        "meta_bstar": 0.0018824764,
        "meta_mean_motion_dot": 2.064e-05,
        "meta_mean_motion_ddot": 0,
        "tle_line1": "1 40689U 99025EWV 25342.03203138  .00002064  00000+0  18825-2 0  9995",
        "tle_line2": "2 40689  99.1251 260.2720 0310130 113.5696 249.8343 13.64679395548197"
      },
      "geometry": {
        "type": "Point",
        "coordinates": [
          76.72907547104803,
          -35.92969115680148
        ]
      }
    },
    {
      "type": "Feature",
      "properties": {
        "norad_id": 40691,
        "name": "FENGYUN 1C DEB",
        "group": "fengyun-1c-debris",
        "lat": -17.673085501358457,
        "lon": -165.240765554948,
        "alt_km": 975.3831395087236,
        "timestamp": "2025-12-11T08:58:27.414333+00:00",
        "meta_object_name": "FENGYUN 1C DEB",
        "meta_object_id": "1999-025EWX",
        "meta_epoch": "2025-12-03T08:15:02.306016",
        "meta_mean_motion": 13.89944729,
        "meta_eccentricity": 0.0128434,
        "meta_inclination": 99.0573,
        "meta_ra_of_asc_node": 9.8547,
        "meta_arg_of_pericenter": 336.6089,
        "meta_mean_anomaly": 22.9259,
        "meta_ephemeris_type": 0,
        "meta_classification_type": "U",
        "meta_norad_cat_id": 40691,
        "meta_element_set_no": 999,
        "meta_rev_at_epoch": 55305,
        "meta_bstar": 0.00023937,
        "meta_mean_motion_dot": 2.71e-06,
        "meta_mean_motion_ddot": 0,
        "tle_line1": "1 40691U 99025EWX 25337.34377669  .00000271  00000+0  23937-3 0  9996",
        "tle_line2": "2 40691  99.0573   9.8547 0128434 336.6089  22.9259 13.89944729553058"
      },
      "geometry": {
        "type": "Point",
        "coordinates": [
          -165.240765554948,
          -17.673085501358457
        ]
      }
    },
    {
      "type": "Feature",
      "properties": {
        "norad_id": 40695,
        "name": "FENGYUN 1C DEB",
        "group": "fengyun-1c-debris",
        "lat": -34.82313452908053,
        "lon": 110.05696446701349,
        "alt_km": 533.341986165774,
        "timestamp": "2025-12-11T08:58:27.414344+00:00",
        "meta_object_name": "FENGYUN 1C DEB",
        "meta_object_id": "1999-025EXB",
        "meta_epoch": "2025-12-08T01:41:20.731776",
        "meta_mean_motion": 14.5094297,
        "meta_eccentricity": 0.02812644,
        "meta_inclination": 99.4262,
        "meta_ra_of_asc_node": 99.7179,
        "meta_arg_of_pericenter": 346.8428,
        "meta_mean_anomaly": 12.553,
        "meta_ephemeris_type": 0,
        "meta_classification_type": "U",
        "meta_norad_cat_id": 40695,
        "meta_element_set_no": 999,
        "meta_rev_at_epoch": 31798,
        "meta_bstar": 0.00027064659,
        "meta_mean_motion_dot": 1.711e-05,
        "meta_mean_motion_ddot": 0,
        "tle_line1": "1 40695U 99025EXB 25342.07037884  .00001711  00000+0  27065-3 0  9994",
        "tle_line2": "2 40695  99.4262  99.7179 0281264 346.8428  12.5530 14.50942970317983"
      },
      "geometry": {
        "type": "Point",
        "coordinates": [
          110.05696446701349,
          -34.82313452908053
        ]
      }
    }
  ]
}